{
  "type": "FeatureCollection",
  "features": [
    {
      "type": "Feature",
      "properties": {
        "norad_id": 37781,
        "name": "HAIYANG-2A",
        "group": "resource",
        "lat": 76.62156392763305,
        "lon": -156.71306926655905,
        "alt_km": 959.5449307700774,
        "timestamp": "2025-12-04T10:51:49.762826+00:00",
        "meta_object_name": "HAIYANG-2A",
        "meta_object_id": "2011-043A",
        "meta_epoch": "2025-12-04T03:24:59.571360",
        "meta_mean_motion": 13.78834283,
        "meta_eccentricity": 0.0001647,
        "meta_inclination": 99.3377,
        "meta_ra_of_asc_node": 339.2094,
        "meta_arg_of_pericenter": 95.5663,
        "meta_mean_anomaly": 264.5676,
        "meta_ephemeris_type": 0,
        "meta_classification_type": "U",
        "meta_norad_cat_id": 37781,
        "meta_element_set_no": 999,
        "meta_rev_at_epoch": 71980,
        "meta_bstar": 6.4319e-05,
        "meta_mean_motion_dot": 2.1e-07,
        "meta_mean_motion_ddot": 0,
        "tle_line1": "1 37781U 11043A   25338.14235615  .00000021  00000+0  64319-4 0  9992",
        "tle_line2": "2 37781  99.3377 339.2094 0001647  95.5663 264.5676 13.78834283719806"
      },
      "geometry": {
        "type": "Point",
        "coordinates": [
          -156.71306926655905,
          76.62156392763305
        ]
      }
    },
    {
      "type": "Feature",
      "properties": {
        "norad_id": 37791,
        "name": "RASAT",
        "group": "resource",
        "lat": 79.64223621276777,
        "lon": 16.95173589656782,
        "alt_km": 645.0463113791875,
        "timestamp": "2025-12-04T10:51:49.762837+00:00",
        "meta_object_name": "RASAT",
        "meta_object_id": "2011-044D",
        "meta_epoch": "2025-12-03T23:33:08.849952",
        "meta_mean_motion": 14.6789038,
        "meta_eccentricity": 0.00219618,
        "meta_inclination": 98.0656,
        "meta_ra_of_asc_node": 67.3691,
        "meta_arg_of_pericenter": 91.3734,
        "meta_mean_anomaly": 23.0694,
        "meta_ephemeris_type": 0,
        "meta_classification_type": "U",
        "meta_norad_cat_id": 37791,
        "meta_element_set_no": 999,
        "meta_rev_at_epoch": 76454,
        "meta_bstar": 0.00022632648,
        "meta_mean_motion_dot": 1.249e-05,
        "meta_mean_motion_ddot": 0,
        "tle_line1": "1 37791U 11044D   25337.98135243  .00001249  00000+0  22633-3 0  9996",
        "tle_line2": "2 37791  98.0656  67.3691 0021961  91.3734  23.0694 14.67890380764547"
      },
      "geometry": {
        "type": "Point",
        "coordinates": [
          16.95173589656782,
          79.64223621276777
        ]
      }
    },
    {
      "type": "Feature",
      "properties": {
        "norad_id": 37841,
        "name": "SRMSAT",
        "group": "resource",
        "lat": -2.343487060958177,
        "lon": 151.64074016206402,
        "alt_km": 857.8221911584578,
        "timestamp": "2025-12-04T10:51:49.762847+00:00",
        "meta_object_name": "SRMSAT",
        "meta_object_id": "2011-058D",
        "meta_epoch": "2025-12-03T21:51:18.053568",
        "meta_mean_motion": 14.11506789,
        "meta_eccentricity": 0.0011726,
        "meta_inclination": 19.9698,
        "meta_ra_of_asc_node": 161.3894,
        "meta_arg_of_pericenter": 215.5538,
        "meta_mean_anomaly": 257.2435,
        "meta_ephemeris_type": 0,
        "meta_classification_type": "U",
        "meta_norad_cat_id": 37841,
        "meta_element_set_no": 999,
        "meta_rev_at_epoch": 73019,
        "meta_bstar": 0.00015324,
        "meta_mean_motion_dot": 5.47e-06,
        "meta_mean_motion_ddot": 0,
        "tle_line1": "1 37841U 11058D   25337.91062562  .00000547  00000+0  15324-3 0  9992",
        "tle_line2": "2 37841  19.9698 161.3894 0011726 215.5538 257.2435 14.11506789730195"
      },
      "geometry": {
        "type": "Point",
        "coordinates": [
          151.64074016206402,
          -2.343487060958177
        ]
      }
    },
    {
      "type": "Feature",
      "properties": {
        "norad_id": 38012,
        "name": "PLEIADES 1A",
        "group": "resource",
        "lat": 22.637899372015735,
        "lon": -125.21080560109654,
        "alt_km": 697.2884733124565,
        "timestamp": "2025-12-04T10:51:49.762858+00:00",
        "meta_object_name": "PLEIADES 1A",
        "meta_object_id": "2011-076F",
        "meta_epoch": "2025-12-04T00:49:47.280000",
        "meta_mean_motion": 14.58548492,
        "meta_eccentricity": 0.0001402,
        "meta_inclination": 98.1833,
        "meta_ra_of_asc_node": 50.9371,
        "meta_arg_of_pericenter": 80.9745,
        "meta_mean_anomaly": 42.0538,
        "meta_ephemeris_type": 0,
        "meta_classification_type": "U",
        "meta_norad_cat_id": 38012,
        "meta_element_set_no": 999,
        "meta_rev_at_epoch": 74354,
        "meta_bstar": 0.00019361087,
        "meta_mean_motion_dot": 8.54e-06,
        "meta_mean_motion_ddot": 0,
        "tle_line1": "1 38012U 11076F   25338.03457500  .00000854  00000+0  19361-3 0  9993",
        "tle_line2": "2 38012  98.1833  50.9371 0001402  80.9745  42.0538 14.58548492743548"
      },
      "geometry": {
        "type": "Point",
        "coordinates": [
          -125.21080560109654,
          22.637899372015735
        ]
      }
    },
    {
      "type": "Feature",
      "properties": {
        "norad_id": 38038,
        "name": "ZIYUAN 1-02C (ZY 1-02C)",
        "group": "resource",
        "lat": -42.62110339621807,
        "lon": 52.466508980721635,
        "alt_km": 776.1535747620464,
        "timestamp": "2025-12-04T10:51:49.762868+00:00",
        "meta_object_name": "ZIYUAN 1-02C (ZY 1-02C)",
        "meta_object_id": "2011-079A",
        "meta_epoch": "2025-12-03T23:56:46.153824",
        "meta_mean_motion": 14.37996855,
        "meta_eccentricity": 0.00068076,
        "meta_inclination": 98.4345,
        "meta_ra_of_asc_node": 44.1722,
        "meta_arg_of_pericenter": 162.668,
        "meta_mean_anomaly": 320.6146,
        "meta_ephemeris_type": 0,
        "meta_classification_type": "U",
        "meta_norad_cat_id": 38038,
        "meta_element_set_no": 999,
        "meta_rev_at_epoch": 73115,
        "meta_bstar": 0.00033327669,
        "meta_mean_motion_dot": 9.65e-06,
        "meta_mean_motion_ddot": 0,
        "tle_line1": "1 38038U 11079A   25337.99775641  .00000965  00000+0  33328-3 0  9999",
        "tle_line2": "2 38038  98.4345  44.1722 0006807 162.6680 320.6146 14.37996855731153"
      },
      "geometry": {
        "type": "Point",
        "coordinates": [
          52.466508980721635,
          -42.62110339621807
        ]
      }
    },
    {
      "type": "Feature",
      "properties": {
        "norad_id": 38046,
        "name": "ZIYUAN 3-1 (ZY 3-1)",
        "group": "resource",
        "lat": -27.02303489815953,
        "lon": -138.99948944655458,
        "alt_km": 374.772485208975,
        "timestamp": "2025-12-04T10:51:49.762878+00:00",
        "meta_object_name": "ZIYUAN 3-1 (ZY 3-1)",
        "meta_object_id": "2012-001A",
        "meta_epoch": "2025-12-04T05:23:04.958016",
        "meta_mean_motion": 15.66963348,
        "meta_eccentricity": 0.0002154,
        "meta_inclination": 97.1776,
        "meta_ra_of_asc_node": 44.4526,
        "meta_arg_of_pericenter": 29.1517,
        "meta_mean_anomaly": 330.9864,
        "meta_ephemeris_type": 0,
        "meta_classification_type": "U",
        "meta_norad_cat_id": 38046,
        "meta_element_set_no": 999,
        "meta_rev_at_epoch": 77363,
        "meta_bstar": 0.0012471,
        "meta_mean_motion_dot": 0.00134029,
        "meta_mean_motion_ddot": 0,
        "tle_line1": "1 38046U 12001A   25338.22436294  .00134029  00000+0  12471-2 0  9993",
        "tle_line2": "2 38046  97.1776  44.4526 0002154  29.1517 330.9864 15.66963348773632"
      },
      "geometry": {
        "type": "Point",
        "coordinates": [
          -138.99948944655458,
          -27.02303489815953
        ]
      }
    },
    {
      "type": "Feature",
      "properties": {
        "norad_id": 38338,
        "name": "ARIRANG-3 (KOMPSAT-3)",
        "group": "resource",
        "lat": -39.15375667291871,
        "lon": -60.1674041685575,
        "alt_km": 691.167595738988,
        "timestamp": "2025-12-04T10:51:49.762890+00:00",
        "meta_object_name": "ARIRANG-3 (KOMPSAT-3)",
        "meta_object_id": "2012-025B",
        "meta_epoch": "2025-12-04T04:28:23.126592",
        "meta_mean_motion": 14.61694888,
        "meta_eccentricity": 0.000597,
        "meta_inclination": 98.3309,
        "meta_ra_of_asc_node": 292.712,
        "meta_arg_of_pericenter": 5.8805,
        "meta_mean_anomaly": 354.2465,
        "meta_ephemeris_type": 0,
        "meta_classification_type": "U",
        "meta_norad_cat_id": 38338,
        "meta_element_set_no": 999,
        "meta_rev_at_epoch": 72285,
        "meta_bstar": 0.00024529,
        "meta_mean_motion_dot": 1.173e-05,
        "meta_mean_motion_ddot": 0,
        "tle_line1": "1 38338U 12025B   25338.18637878  .00001173  00000+0  24529-3 0  9990",
        "tle_line2": "2 38338  98.3309 292.7120 0005970   5.8805 354.2465 14.61694888722857"
      },
      "geometry": {
        "type": "Point",
        "coordinates": [
          -60.1674041685575,
          -39.15375667291871
        ]
      }
    }
  ]
}